{
    "links": {
        "self": "http://www.neowsapp.com/rest/v1/neo/3455135?api_key=iIulBulltgU6a56xZRHN4H3l9WmuAYTsLGpBGhQ2"
    },
    "id": "3455135",
    "neo_reference_id": "3455135",
    "name": "(2009 FS23)",
    "designation": "2009 FS23",
    "nasa_jpl_url": "http://ssd.jpl.nasa.gov/sbdb.cgi?sstr=3455135",
    "absolute_magnitude_h": 25.3,
    "estimated_diameter": {
        "kilometers": {
            "estimated_diameter_min": 0.0231502122,
            "estimated_diameter_max": 0.0517654482
        },
        "meters": {
            "estimated_diameter_min": 23.150212221,
            "estimated_diameter_max": 51.7654482198
        },
        "miles": {
            "estimated_diameter_min": 0.0143848705,
            "estimated_diameter_max": 0.0321655483
        },
        "feet": {
            "estimated_diameter_min": 75.9521422633,
            "estimated_diameter_max": 169.8341531374
        }
    },
    "is_potentially_hazardous_asteroid": false,
    "close_approach_data": [
        {
            "close_approach_date": "1907-05-05",
            "close_approach_date_full": "1907-May-05 04:03",
            "epoch_date_close_approach": -1977422220000,
            "relative_velocity": {
                "kilometers_per_second": "18.3908972887",
                "kilometers_per_hour": "66207.2302392242",
                "miles_per_hour": "41138.5981450335"
            },
            "miss_distance": {
                "astronomical": "0.4225248979",
                "lunar": "164.3621852831",
                "kilometers": "63208824.747807473",
                "miles": "39276142.4393622074"
            },
            "orbiting_body": "Earth"
        },
        {
            "close_approach_date": "2009-03-22",
            "close_approach_date_full": "2009-Mar-22 10:24",
            "epoch_date_close_approach": 1237717440000,
            "relative_velocity": {
                "kilometers_per_second": "8.1631661171",
                "kilometers_per_hour": "29387.3980216543",
                "miles_per_hour": "18260.1862873996"
            },
            "miss_distance": {
                "astronomical": "0.058690795",
                "lunar": "22.830719255",
                "kilometers": "8780017.92060665",
                "miles": "5455650.15400577"
            },
            "orbiting_body": "Earth"
        }
    ],
    "orbital_data": {
        "orbit_id": "8",
        "orbit_determination_date": "2017-04-06 09:00:55",
        "first_observation_date": "2009-03-23",
        "last_observation_date": "2009-04-02",
        "data_arc_in_days": 10,
        "observations_used": 19,
        "orbit_uncertainty": "8",
        "minimum_orbit_intersection": ".0586828",
        "jupiter_tisserand_invariant": "3.623",
        "epoch_osculation": "2454916.5",
        "eccentricity": ".4844407533814064",
        "semi_major_axis": "2.044154664456928",
        "inclination": "10.75730326659217",
        "ascending_node_longitude": "182.8890450533731",
        "orbital_period": "1067.50287955296",
        "perihelion_distance": "1.053882838779298",
        "perihelion_argument": "354.0606929770434",
        "aphelion_distance": "3.034426490134559",
        "perihelion_time": "2454908.619588049939",
        "mean_anomaly": "2.657555643512636",
        "mean_motion": ".337235624273686",
        "equinox": "J2000",
        "orbit_class": {
            "orbit_class_type": "AMO",
            "orbit_class_description": "Near-Earth asteroid orbits similar to that of 1221 Amor",
            "orbit_class_range": "1.017 AU < q (perihelion) < 1.3 AU"
        }
    },
    "is_sentry_object": false
}